     3.04           N: GNSS NAV DATA    G: GPS              RINEX VERSION / TYPE
cnvtToRINEX 3.14.0  convertToRINEX OPR  20250615 162940 UTC PGM / RUN BY / DATE 
----------------------------------------------------------- COMMENT             
GPSA   0.1583D-07  0.2235D-07 -0.1192D-06 -0.1192D-06       IONOSPHERIC CORR    
GPSB   0.1167D+06  0.1638D+06 -0.1311D+06 -0.4588D+06       IONOSPHERIC CORR    
GPUT  0.1862645149D-08 0.000000000D+00 233472 2371          TIME SYSTEM CORR    
    18                                                      LEAP SECONDS        
                                                            END OF HEADER       
G 2 2025 06 15 10 00 00-0.145007856190D-03 0.909494701773D-11 0.000000000000D+00
     0.860000000000D+02 0.115093750000D+03 0.428303554848D-08 0.182900681277D+01
     0.591948628426D-05 0.164065180579D-01 0.553950667381D-05 0.515369995117D+04
     0.360000000000D+05 0.281259417534D-06 0.132967416789D+01 0.745058059692D-07
     0.965355364846D+00 0.264875000000D+03-0.974118220734D+00-0.786389899153D-08
    -0.130362572982D-09 0.100000000000D+01 0.237100000000D+04 0.000000000000D+00
     0.200000000000D+01 0.000000000000D+00-0.176951289177D-07 0.860000000000D+02
     0.315660000000D+05 0.400000000000D+01 0.000000000000D+00 0.000000000000D+00
G 8 2025 06 15 10 00 00 0.526012852788D-03 0.216004991671D-11 0.000000000000D+00
     0.990000000000D+02 0.408437500000D+02 0.486555981295D-08 0.138232614464D+01
     0.240094959736D-05 0.104908647481D-01 0.983849167824D-05 0.515357545853D+04
     0.360000000000D+05 0.149011611938D-07 0.326709139536D+00 0.204890966415D-06
     0.947689053476D+00 0.183718750000D+03 0.456603089934D+00-0.814176770873D-08
    -0.568237955106D-09 0.100000000000D+01 0.237100000000D+04 0.000000000000D+00
     0.280000000000D+01 0.000000000000D+00 0.465661287308D-08 0.990000000000D+02
     0.308820000000D+05 0.400000000000D+01 0.000000000000D+00 0.000000000000D+00
G10 2025 06 15 10 00 00-0.454465858638D-03-0.110276232590D-10 0.000000000000D+00
     0.690000000000D+02-0.439062500000D+02 0.381480175895D-08-0.284041532590D+01
    -0.224262475967D-05 0.101758638630D-01 0.223144888878D-05 0.515365046692D+04
     0.360000000000D+05 0.223517417908D-07 0.247029733565D+01-0.111758708954D-06
     0.989639800573D+00 0.351062500000D+03-0.231553858944D+01-0.780925385820D-08
    -0.639312344211D-10 0.100000000000D+01 0.237100000000D+04 0.000000000000D+00
     0.200000000000D+01 0.000000000000D+00 0.232830643654D-08 0.690000000000D+02
     0.308880000000D+05 0.400000000000D+01 0.000000000000D+00 0.000000000000D+00
G23 2025 06 15 10 00 00 0.494696199894D-03 0.636646291241D-11 0.000000000000D+00
     0.129000000000D+03-0.383437500000D+02 0.391623455546D-08-0.164608598067D+01
    -0.190921127796D-05 0.527313363273D-02 0.250712037086D-05 0.515365340805D+04
     0.360000000000D+05-0.316649675369D-07 0.243945837739D+01-0.119209289551D-06
     0.984697220660D+00 0.345750000000D+03-0.284953111077D+01-0.796140305296D-08
    -0.471448209139D-10 0.100000000000D+01 0.237100000000D+04 0.000000000000D+00
     0.200000000000D+01 0.000000000000D+00-0.838190317154D-08 0.129000000000D+03
     0.308880000000D+05 0.400000000000D+01 0.000000000000D+00 0.000000000000D+00
G27 2025 06 15 10 00 00-0.244122929871D-04 0.454747350886D-12 0.000000000000D+00
     0.430000000000D+02 0.406562500000D+02 0.461554939902D-08 0.151163113008D+01
     0.213272869587D-05 0.134538770653D-01 0.101588666439D-04 0.515369770241D+04
     0.360000000000D+05-0.320374965668D-06 0.356463643936D+00 0.968575477600D-07
     0.956766717631D+00 0.185468750000D+03 0.849399509813D+00-0.801747681723D-08
    -0.457876215239D-09 0.100000000000D+01 0.237100000000D+04 0.000000000000D+00
     0.200000000000D+01 0.000000000000D+00 0.232830643654D-08 0.430000000000D+02
     0.308880000000D+05 0.400000000000D+01 0.000000000000D+00 0.000000000000D+00
G16 2025 06 15 09 59 44 0.386834144592D-04 0.841282599140D-11 0.000000000000D+00
     0.150000000000D+02-0.684375000000D+01 0.492127641949D-08 0.243166662262D+01
    -0.512227416039D-06 0.144483692711D-01 0.638887286186D-05 0.515374395943D+04
     0.359840000000D+05-0.670552253723D-07-0.591664693118D+00-0.253319740295D-06
     0.959467327311D+00 0.256437500000D+03 0.886368166506D+00-0.786925635754D-08
    -0.221437795202D-09 0.100000000000D+01 0.237100000000D+04 0.000000000000D+00
     0.200000000000D+01 0.000000000000D+00-0.102445483208D-07 0.150000000000D+02
     0.349920000000D+05 0.400000000000D+01 0.000000000000D+00 0.000000000000D+00
G10 2025 06 15 12 00 00-0.454545021057D-03-0.110276232590D-10 0.000000000000D+00
     0.700000000000D+02-0.395937500000D+02 0.384301721995D-08-0.179022366806D+01
    -0.204890966415D-05 0.101754167117D-01 0.244379043579D-05 0.515365106392D+04
     0.432000000000D+05 0.154599547386D-06 0.247024120641D+01-0.137835741043D-06
     0.989639313421D+00 0.348156250000D+03-0.231554083356D+01-0.784711257802D-08
    -0.102861427448D-09 0.100000000000D+01 0.237100000000D+04 0.000000000000D+00
     0.200000000000D+01 0.000000000000D+00 0.232830643654D-08 0.700000000000D+02
     0.360180000000D+05 0.400000000000D+01 0.000000000000D+00 0.000000000000D+00
G27 2025 06 15 12 00 00-0.244090333581D-04 0.454747350886D-12 0.000000000000D+00
     0.112000000000D+03 0.375625000000D+02 0.448340103736D-08 0.256176750571D+01
     0.176951289177D-05 0.134538369020D-01 0.982172787189D-05 0.515369840050D+04
     0.432000000000D+05-0.577419996262D-07 0.356406609149D+00-0.163912773132D-06
     0.956765270805D+00 0.186937500000D+03 0.849429547910D+00-0.767103381506D-08
    -0.381801617856D-09 0.100000000000D+01 0.237100000000D+04 0.000000000000D+00
     0.200000000000D+01 0.000000000000D+00 0.232830643654D-08 0.112000000000D+03
     0.360180000000D+05 0.400000000000D+01 0.000000000000D+00 0.000000000000D+00
G23 2025 06 15 12 00 00 0.494742300361D-03 0.636646291241D-11 0.000000000000D+00
     0.130000000000D+03-0.296562500000D+02 0.412088593715D-08-0.596113655212D+00
    -0.172108411789D-05 0.527266447898D-02 0.242143869400D-05 0.515365105820D+04
     0.432000000000D+05 0.173225998878D-06 0.243940151230D+01 0.651925802231D-07
     0.984695642172D+00 0.347781250000D+03-0.284931356169D+01-0.815105380982D-08
    -0.210723063176D-09 0.100000000000D+01 0.237100000000D+04 0.000000000000D+00
     0.200000000000D+01 0.000000000000D+00-0.838190317154D-08 0.130000000000D+03
     0.360180000000D+05 0.400000000000D+01 0.000000000000D+00 0.000000000000D+00
G 8 2025 06 15 12 00 00 0.526028219610D-03 0.216004991671D-11 0.000000000000D+00
     0.100000000000D+03 0.340625000000D+02 0.477377027526D-08 0.243248452256D+01
     0.170804560184D-05 0.104904975742D-01 0.980496406555D-05 0.515357725525D+04
     0.432000000000D+05-0.212341547012D-06 0.326650040571D+00-0.651925802231D-07
     0.947686620643D+00 0.184750000000D+03 0.456688189342D+00-0.788604277105D-08
    -0.368943939425D-09 0.100000000000D+01 0.237100000000D+04 0.000000000000D+00
     0.280000000000D+01 0.000000000000D+00 0.465661287308D-08 0.100000000000D+03
     0.360180000000D+05 0.400000000000D+01 0.000000000000D+00 0.000000000000D+00
G 2 2025 06 15 12 00 00-0.144942197949D-03 0.909494701773D-11 0.000000000000D+00
     0.870000000000D+02 0.113750000000D+03 0.436553898508D-08 0.287916745528D+01
     0.601448118687D-05 0.164062845288D-01 0.601075589657D-05 0.515370034027D+04
     0.432000000000D+05 0.193715095520D-06 0.132961701607D+01 0.303611159325D-06
     0.965354655331D+00 0.263125000000D+03-0.974114980370D+00-0.783925510787D-08
     0.107147320259D-11 0.100000000000D+01 0.237100000000D+04 0.000000000000D+00
     0.280000000000D+01 0.000000000000D+00-0.176951289177D-07 0.870000000000D+02
     0.360180000000D+05 0.400000000000D+01 0.000000000000D+00 0.000000000000D+00
G16 2025 06 15 12 00 00 0.387439504266D-04 0.841282599140D-11 0.000000000000D+00
     0.160000000000D+02-0.437500000000D+00 0.491199031840D-08-0.279905919356D+01
    -0.316649675369D-06 0.144474816043D-01 0.624544918537D-05 0.515374564552D+04
     0.432000000000D+05 0.160187482834D-06-0.591722207742D+00-0.290572643280D-06
     0.959465706398D+00 0.258125000000D+03 0.886382877610D+00-0.794997400547D-08
    -0.113219001740D-09 0.100000000000D+01 0.237100000000D+04 0.000000000000D+00
     0.200000000000D+01 0.000000000000D+00-0.102445483208D-07 0.160000000000D+02
     0.360180000000D+05 0.400000000000D+01 0.000000000000D+00 0.000000000000D+00
G 1 2025 06 15 12 00 00 0.291909556836D-03 0.103455022327D-10 0.000000000000D+00
     0.550000000000D+02 0.978437500000D+02 0.463590738987D-08 0.114430176890D+01
     0.523217022419D-05 0.566654955037D-03 0.457651913166D-05 0.515372017860D+04
     0.432000000000D+05 0.465661287308D-07 0.149353166475D+01 0.130385160446D-07
     0.959211319573D+00 0.287875000000D+03 0.228979796945D+00-0.824320050525D-08
     0.389301930274D-10 0.100000000000D+01 0.237100000000D+04 0.000000000000D+00
     0.280000000000D+01 0.000000000000D+00-0.884756445885D-08 0.311000000000D+03
     0.363660000000D+05 0.400000000000D+01 0.000000000000D+00 0.000000000000D+00
G32 2025 06 15 12 00 00-0.422520563006D-03 0.111413100967D-10 0.000000000000D+00
     0.740000000000D+02-0.103906250000D+03 0.396373653411D-08-0.308781750539D+01
    -0.530295073986D-05 0.858164974488D-02 0.851042568684D-05 0.515362559700D+04
     0.432000000000D+05 0.167638063431D-07-0.278285468699D+01-0.614672899246D-07
     0.965440031230D+00 0.216312500000D+03-0.205806277069D+01-0.762746057149D-08
     0.882179603464D-10 0.100000000000D+01 0.237100000000D+04 0.000000000000D+00
     0.200000000000D+01 0.000000000000D+00 0.931322574615D-09 0.740000000000D+02
     0.366120000000D+05 0.400000000000D+01 0.000000000000D+00 0.000000000000D+00
G 2 2025 06 15 11 59 44-0.144942197949D-03 0.909494701773D-11 0.000000000000D+00
     0.140000000000D+02 0.113750000000D+03 0.436553898508D-08 0.287683366500D+01
     0.601448118687D-05 0.164062872063D-01 0.601075589657D-05 0.515370033646D+04
     0.431840000000D+05 0.193715095520D-06 0.132961717114D+01 0.303611159325D-06
     0.965354650942D+00 0.263125000000D+03-0.974114889669D+00-0.783961226560D-08
     0.107147320259D-11 0.100000000000D+01 0.237100000000D+04 0.000000000000D+00
     0.200000000000D+01 0.000000000000D+00-0.176951289177D-07 0.140000000000D+02
     0.367860000000D+05 0.400000000000D+01 0.000000000000D+00 0.000000000000D+00
